OBJECT_NAME,OBJECT_ID,EPOCH,MEAN_MOTION,ECCENTRICITY,INCLINATION,RA_OF_ASC_NODE,ARG_OF_PERICENTER,MEAN_ANOMALY,EPHEMERIS_TYPE,CLASSIFICATION_TYPE,NORAD_CAT_ID,ELEMENT_SET_NO,REV_AT_EPOCH,BSTAR,MEAN_MOTION_DOT,MEAN_MOTION_DDOT
GAOFEN-11 01,2018-063A,2026-07-05T07:32:18.620160,15.55858674,.00022182,97.1276,253.1475,247.1725,112.9297,0,U,43585,999,44316,.50545625E-3,.34971E-3,0
ICESAT-2,2018-070A,2026-07-05T00:44:29.518944,15.28217841,.00060711,92.0090,295.8009,86.5537,273.6406,0,U,43613,999,43518,.58932304E-3,.16218E-3,0
HYSIS,2018-096A,2026-07-05T06:42:38.335104,14.78656488,.00018715,97.9828,252.8854,89.2745,270.8680,0,U,43719,999,41009,.23982196E-3,.1705E-4,0
KAZSTSAT,2018-099AB,2026-07-05T01:02:22.657056,14.99934324,.00081259,97.4307,217.1642,18.2176,341.9338,0,U,43783,999,41398,.18853974E-3,.2286E-4,0
SAUDISAT 5A,2018-102A,2026-07-05T07:16:33.294432,15.28247507,.00111015,97.3052,247.5362,74.3687,285.8777,0,U,43831,999,41844,.28825982E-3,.7875E-4,0
SAUDISAT 5B,2018-102C,2026-07-05T07:39:23.219136,15.28494439,.00118568,97.3161,250.6543,75.9074,284.3483,0,U,43833,999,41856,.27494173E-3,.7566E-4,0
GAOFEN-10R,2019-066A,2026-07-05T07:16:44.294016,14.83042020,.00071849,98.0505,140.0147,78.5382,281.6638,0,U,44622,999,36506,.17717142E-3,.1387E-4,0
CARTOSAT-3,2019-081A,2026-07-05T08:03:24.130944,15.19276393,.00134935,97.4288,247.9107,91.6058,268.6723,0,U,44804,999,36622,.31742379E-3,.6644E-4,0
GAOFEN-12 01,2019-082A,2026-07-05T06:15:31.180320,14.80474014,.00014964,97.8104,192.1633,53.6710,306.4640,0,U,44819,999,35676,.65707407E-4,.452E-5,0
NEMO-HD,2020-061F,2026-07-05T07:58:13.356192,15.44984585,.00013151,97.1905,248.1050,74.8915,285.2480,0,U,46277,999,32478,.30811364E-3,.14441E-3,0
SENTINEL-6A,2020-086A,2026-07-04T11:54:50.478912,12.80930021,.00078375,66.0414,99.1022,270.0559,89.9558,0,U,46984,999,26254,.98233676E-4,-.38E-6,0
CAS500-1,2021-022A,2026-07-05T07:06:51.387840,15.20192089,.00038204,97.3875,81.1813,208.2942,151.8086,0,U,47932,999,29351,.38025386E-3,.8172E-4,0
GAOFEN-12 02,2021-026A,2026-07-05T06:34:14.629152,14.80310779,.00051482,97.9928,184.3808,159.3710,200.7710,0,U,48079,999,28443,.64219322E-4,.437E-5,0
PLEIADES NEO 3,2021-034A,2026-07-05T06:49:25.165056,14.81672306,.00013227,97.8934,260.7904,90.7974,269.3390,0,U,48268,999,28033,-.10138757E-4,-.132E-5,0
LANDSAT 9,2021-088A,2026-07-05T04:30:46.830528,14.57110712,.000117,98.2273,256.1471,88.5749,271.5583,0,U,49260,999,25362,.11791639E-3,.486E-5,0
CSG-2,2022-008A,2026-07-05T05:53:23.424864,14.82154960,.00015301,97.8888,9.5805,85.2831,274.8557,0,U,51444,999,23926,-.19344648E-4,-.206E-5,0
GAOFEN-12 03,2022-069A,2026-07-05T07:21:51.386400,14.80063721,.00024281,97.8252,73.7184,83.5202,276.6286,0,U,52912,999,21729,.14574138E-3,.1053E-4,0
SWOT,2022-173A,2026-07-05T03:18:11.295072,14.00171728,.00003121,77.6102,11.0762,80.1810,279.9377,0,U,54754,999,18166,.42260279E-4,.6E-6,0
GAOFEN-12 04,2023-123A,2026-07-05T07:47:20.901408,14.79762505,.00038929,97.9110,104.0739,70.3470,289.8162,0,U,57654,999,15531,.16201304E-3,.1167E-4,0
PARS 1,2024-039Q,2026-07-05T07:25:13.991808,15.46128030,.00108923,97.4837,167.8048,58.3619,301.8692,0,U,59065,999,13144,.30569936E-3,.14926E-3,0
RESURS-P 4,2024-061A,2026-07-05T06:55:16.326624,15.32238561,.00031568,97.2758,133.8731,104.3516,255.8077,0,U,59371,999,12653,.12178886E-3,.3714E-4,0
LEGION 1,2024-081A,2026-07-05T04:07:20.676576,15.16797089,.00079642,97.5008,263.8376,311.2567,48.7980,0,U,59625,999,12026,.30315091E-3,.5893E-4,0
LEGION 2,2024-081B,2026-07-05T06:25:53.181696,15.16777146,.00098185,97.5008,264.0301,272.9704,87.0405,0,U,59626,999,12028,.28956327E-3,.5625E-4,0
ALOS-4 (DAICHI-4),2024-123A,2026-07-05T06:49:08.819904,14.79475256,.00016103,97.9217,283.2005,97.4711,262.6684,0,U,60182,999,10855,.27594321E-3,.201E-4,0
LEGION 3,2024-146A,2026-07-04T18:58:51.822048,15.15607432,.00088839,45.0023,296.1539,280.2636,79.7241,0,U,60452,999,10469,.30870559E-3,.5709E-4,0
LEGION 4,2024-146B,2026-07-05T01:20:54.601728,15.16184257,.00116535,45.0021,26.6226,48.6960,311.4920,0,U,60453,999,10358,.33499284E-3,.6327E-4,0
SENTINEL-2C,2024-157A,2026-07-05T05:08:52.437120,14.30813996,.00009359,98.5686,260.7412,94.1003,266.0286,0,U,60989,999,9556,.85755342E-4,.181E-5,0
IONOSFERA-M 1,2024-199A,2026-07-05T06:25:15.037824,14.22757847,.00022194,98.7150,59.2470,86.3137,273.8295,0,U,61735,999,13027,.50511287E-4,.69E-6,0
