GAOFEN-11 01            
1 43585U 18063A   26186.31410440  .00034971  00000+0  50546-3 0  9999
2 43585  97.1276 253.1475 0002218 247.1725 112.9297 15.55858674443160
ICESAT-2                
1 43613U 18070A   26186.03089721  .00016218  00000+0  58932-3 0  9993
2 43613  92.0090 295.8009 0006071  86.5537 273.6406 15.28217841435188
HYSIS                   
1 43719U 18096A   26186.27961036  .00001705  00000+0  23982-3 0  9994
2 43719  97.9828 252.8854 0001871  89.2745 270.8680 14.78656488410097
KAZSTSAT                
1 43783U 18099AB  26186.04331779  .00002286  00000+0  18854-3 0  9995
2 43783  97.4307 217.1642 0008125  18.2176 341.9338 14.99934324413985
SAUDISAT 5A             
1 43831U 18102A   26186.30316313  .00007875  00000+0  28826-3 0  9999
2 43831  97.3052 247.5362 0011101  74.3687 285.8777 15.28247507418441
SAUDISAT 5B             
1 43833U 18102C   26186.31901874  .00007566  00000+0  27494-3 0  9991
2 43833  97.3161 250.6543 0011856  75.9074 284.3483 15.28494439418563
GAOFEN-10R              
1 44622U 19066A   26186.30329044  .00001387  00000+0  17717-3 0  9992
2 44622  98.0505 140.0147 0007184  78.5382 281.6638 14.83042020365065
CARTOSAT-3              
1 44804U 19081A   26186.33569596  .00006644  00000+0  31742-3 0  9997
2 44804  97.4288 247.9107 0013493  91.6058 268.6723 15.19276393366228
GAOFEN-12 01            
1 44819U 19082A   26186.26077755  .00000452  00000+0  65707-4 0  9997
2 44819  97.8104 192.1633 0001496  53.6710 306.4640 14.80474014356767
NEMO-HD                 
1 46277U 20061F   26186.33209903  .00014441  00000+0  30811-3 0  9996
2 46277  97.1905 248.1050 0001315  74.8915 285.2480 15.44984585324789
SENTINEL-6A             
1 46984U 20086A   26185.49641758 -.00000038  00000+0  98234-4 0  9994
2 46984  66.0414  99.1022 0007837 270.0559  89.9558 12.80930021262549
CAS500-1                
1 47932U 21022A   26186.29642810  .00008172  00000+0  38025-3 0  9995
2 47932  97.3875  81.1813 0003820 208.2942 151.8086 15.20192089293514
GAOFEN-12 02            
1 48079U 21026A   26186.27378043  .00000437  00000+0  64219-4 0  9995
2 48079  97.9928 184.3808 0005148 159.3710 200.7710 14.80310779284438
PLEIADES NEO 3          
1 48268U 21034A   26186.28431904 -.00000132  00000+0 -10139-4 0  9997
2 48268  97.8934 260.7904 0001322  90.7974 269.3390 14.81672306280338
LANDSAT 9               
1 49260U 21088A   26186.18804202  .00000486  00000+0  11792-3 0  9998
2 49260  98.2273 256.1471 0001170  88.5749 271.5583 14.57110712253628
CSG-2                   
1 51444U 22008A   26186.24541001 -.00000206  00000+0 -19345-4 0  9995
2 51444  97.8888   9.5805 0001530  85.2831 274.8557 14.82154960239261
GAOFEN-12 03            
1 52912U 22069A   26186.30684475  .00001053  00000+0  14574-3 0  9990
2 52912  97.8252  73.7184 0002428  83.5202 276.6286 14.80063721217290
SWOT                    
1 54754U 22173A   26186.13763073  .00000060  00000+0  42260-4 0  9996
2 54754  77.6102  11.0762 0000312  80.1810 279.9377 14.00171728181668
GAOFEN-12 04            
1 57654U 23123A   26186.32454747  .00001167  00000+0  16201-3 0  9994
2 57654  97.9110 104.0739 0003892  70.3470 289.8162 14.79762505155310
PARS 1                  
1 59065U 24039Q   26186.30918972  .00014926  00000+0  30570-3 0  9994
2 59065  97.4837 167.8048 0010892  58.3619 301.8692 15.46128030131443
RESURS-P 4              
1 59371U 24061A   26186.28838341  .00003714  00000+0  12179-3 0  9995
2 59371  97.2758 133.8731 0003156 104.3516 255.8077 15.32238561126533
LEGION 1                
1 59625U 24081A   26186.17176709  .00005893  00000+0  30315-3 0  9992
2 59625  97.5008 263.8376 0007964 311.2567  48.7980 15.16797089120264
LEGION 2                
1 59626U 24081B   26186.26797664  .00005625  00000+0  28956-3 0  9993
2 59626  97.5008 264.0301 0009818 272.9704  87.0405 15.16777146120284
ALOS-4 (DAICHI-4)       
1 60182U 24123A   26186.28412986  .00002010  00000+0  27594-3 0  9994
2 60182  97.9217 283.2005 0001610  97.4711 262.6684 14.79475256108554
LEGION 3                
1 60452U 24146A   26185.79087757  .00005709  00000+0  30871-3 0  9998
2 60452  45.0023 296.1539 0008883 280.2636  79.7241 15.15607432104696
LEGION 4                
1 60453U 24146B   26186.05618752  .00006327  00000+0  33499-3 0  9990
2 60453  45.0021  26.6226 0011653  48.6960 311.4920 15.16184257103582
SENTINEL-2C             
1 60989U 24157A   26186.21449580  .00000181  00000+0  85755-4 0  9990
2 60989  98.5686 260.7412 0000935  94.1003 266.0286 14.30813996 95561
IONOSFERA-M 1           
1 61735U 24199A   26186.26753516  .00000069  00000+0  50511-4 0  9995
2 61735  98.7150  59.2470 0002219  86.3137 273.8295 14.22757847130279
